STARLINK-3562           
1 51861U 22022K   25110.72718101  .00000652  00000+0  59023-4 0  9990
2 51861  53.2188  18.9541 0001371  84.9216 275.1932 15.08841638174274
STARLINK-3508           
1 51862U 22022L   25110.73821720  .00000603  00000+0  55961-4 0  9997
2 51862  53.2193  18.9042 0001241  90.5245 269.5889 15.08856178174417
STARLINK-3555           
1 51863U 22022M   25109.92493683 -.00002353  00000+0 -12983-3 0  9992
2 51863  53.2184  22.5568 0001172  86.9547 273.1579 15.08829441174239
STARLINK-3548           
1 51864U 22022N   25110.72349088 -.00000035  00000+0  15872-4 0  9997
2 51864  53.2193  18.8940 0001510  82.0463 278.0700 15.08838848174402
STARLINK-3503           
1 51865U 22022P   25110.77870113  .00000035  00000+0  20278-4 0  9996
2 51865  53.2197  18.7276 0001646 102.5509 257.5667 15.08839599174360
STARLINK-3553           
1 51866U 22022Q   25110.77595970  .00001613  00000+0  11941-3 0  9991
2 51866  53.2187  18.5905 0001690  95.7430 264.3755 15.08848259174369
STARLINK-3590           
1 51867U 22022R   25109.78141737  .00003787  00000+0  25591-3 0  9999
2 51867  53.2186  23.2004 0001639  85.2287 274.8892 15.08842997174214
STARLINK-3578           
1 51868U 22022S   25110.38493431  .00002408  00000+0  16931-3 0  9996
2 51868  53.2179  20.4874 0001712  79.8370 280.2815 15.08849511174300
STARLINK-3588           
1 51869U 22022T   25110.76398225 -.00002022  00000+0 -10894-3 0  9990
2 51869  53.2177  18.7850 0001838 100.7206 259.3993 15.08843934174367
STARLINK-3591           
1 51870U 22022U   25110.77133932  .00004899  00000+0  32551-3 0  9991
2 51870  53.2186  18.7546 0001043  69.0096 291.1008 15.08858933174415
STARLINK-3567           
1 51871U 22022V   25110.76030718  .00000467  00000+0  47413-4 0  9990
2 51871  53.2183  18.8044 0001404  81.9134 278.2017 15.08842564174479
STARLINK-3554           
1 51872U 22022W   25110.03902128  .00002235  00000+0  15849-3 0  9996
2 51872  53.2202  22.0407 0001382 100.9877 259.1270 15.08840637174257
STARLINK-3582           
1 51873U 22022X   25110.75021413  .00000792  00000+0  67819-4 0  9996
2 51873  53.2190  18.8540 0001480 111.1377 248.9774 15.08846618174365
STARLINK-3574           
1 51874U 22022Y   25110.75662321  .00004333  00000+0  29021-3 0  9993
2 51874  53.2177  18.8275 0002046  65.0492 295.0712 15.08837346174352
STARLINK-3585           
1 51875U 22022Z   25110.73453042  .00000132  00000+0  26390-4 0  9990
2 51875  53.2172  18.8334 0001318 101.5586 258.5554 15.08843942174363
STARLINK-3583           
1 51876U 22022AA  25110.75293805  .00002486  00000+0  17424-3 0  9993
2 51876  53.2179  18.8385 0001612  83.2388 276.8788 15.08844762174363
STARLINK-3556           
1 51877U 22022AB  25110.73546075 -.00000498  00000+0 -13211-4 0  9996
2 51877  53.2193   8.9168 0001421  80.9366 279.1787 15.08835223174498
STARLINK-3575           
1 51878U 22022AC  25110.74557939  .00003662  00000+0  24793-3 0  9999
2 51878  53.2173  18.8668 0001252  85.6285 274.4850 15.08858283174362
STARLINK-3572           
1 51879U 22022AD  25110.72809957  .00005862  00000+0  38597-3 0  9999
2 51879  53.2197   8.9488 0000985 312.0223  48.0685 15.08851162174494
STARLINK-3566           
1 51880U 22022AE  25109.75563005 -.00000163  00000+0  78473-5 0  9992
2 51880  53.2191  23.0313 0001070  95.3569 264.7545 15.08842449174215
STARLINK-3504           
1 51881U 22022AF  25109.72714271  .00004616  00000+0  30787-3 0  9993
2 51881  53.2181  13.4435 0001244  93.0103 267.1032 15.08843178174392
STARLINK-3570           
1 51882U 22022AG  25110.73273599  .00002388  00000+0  16805-3 0  9999
2 51882  53.2174   8.9357 0001559 103.8944 256.2221 15.08845354174543
STARLINK-3576           
1 51883U 22022AH  25110.73180101  .00009545  00000+0  61642-3 0  9997
2 51883  53.2183   9.1146 0001522  68.7726 291.3429 15.08872943174487
STARLINK-3577           
1 51884U 22022AJ  25109.00218323  .00000173  00000+0  28970-4 0  9990
2 51884  53.2178  16.6984 0001468  63.8954 296.2189 15.08840245174312
STARLINK-3584           
1 51885U 22022AK  25110.70970189 -.00001256  00000+0 -60820-4 0  9990
2 51885  53.2203   9.0355 0001562  74.5245 285.5920 15.08848148174489
STARLINK-3565           
1 51886U 22022AL  25110.84953696 -.00001114  00000+0 -51929-4 0  9993
2 51886  53.2190   8.4009 0001254  99.0507 261.0627 15.08850642174514
STARLINK-3551           
1 51887U 22022AM  25110.83850057  .00000345  00000+0  39791-4 0  9996
2 51887  53.2166   8.4559 0001320  90.4770 269.6374 15.08836681174508
STARLINK-3536           
1 51888U 22022AN  25110.84586143 -.00000872  00000+0 -36709-4 0  9993
2 51888  53.2185   8.4213 0001267  83.5664 276.5472 15.08845832174517
STARLINK-3547           
1 51889U 22022AP  25110.69498203 -.00000194  00000+0  59041-5 0  9997
2 51889  53.2200   9.0982 0001374 105.1204 254.9940 15.08845881174486
STARLINK-3519           
1 51890U 22022AQ  25110.91668981  .00450739  00000+0  24283-2 0  9996
2 51890  53.1779 313.2049 0005971 243.8057 294.6272 15.78384295  6022
