OBJECT_NAME,OBJECT_ID,EPOCH,MEAN_MOTION,ECCENTRICITY,INCLINATION,RA_OF_ASC_NODE,ARG_OF_PERICENTER,MEAN_ANOMALY,EPHEMERIS_TYPE,CLASSIFICATION_TYPE,NORAD_CAT_ID,ELEMENT_SET_NO,REV_AT_EPOCH,BSTAR,MEAN_MOTION_DOT,MEAN_MOTION_DDOT
STARLINK-3562,2022-022K,2025-04-20T17:27:08.439264,15.08841638,.0001371,53.2188,18.9541,84.9216,275.1932,0,U,51861,999,17427,.59023E-4,.652E-5,0
STARLINK-3508,2022-022L,2025-04-20T17:43:01.966080,15.08856178,.0001241,53.2193,18.9042,90.5245,269.5889,0,U,51862,999,17441,.55961E-4,.603E-5,0
STARLINK-3555,2022-022M,2025-04-19T22:11:54.542112,15.08829441,.0001172,53.2184,22.5568,86.9547,273.1579,0,U,51863,999,17423,-.12983E-3,-.2353E-4,0
STARLINK-3548,2022-022N,2025-04-20T17:21:49.612032,15.08838848,.000151,53.2193,18.8940,82.0463,278.0700,0,U,51864,999,17440,.15872E-4,-.35E-6,0
STARLINK-3503,2022-022P,2025-04-20T18:41:19.777632,15.08839599,.0001646,53.2197,18.7276,102.5509,257.5667,0,U,51865,999,17436,.20278E-4,.35E-6,0
STARLINK-3553,2022-022Q,2025-04-20T18:37:22.918080,15.08848259,.000169,53.2187,18.5905,95.7430,264.3755,0,U,51866,999,17436,.11941E-3,.1613E-4,0
STARLINK-3590,2022-022R,2025-04-19T18:45:14.460768,15.08842997,.0001639,53.2186,23.2004,85.2287,274.8892,0,U,51867,999,17421,.25591E-3,.3787E-4,0
STARLINK-3578,2022-022S,2025-04-20T09:14:18.324384,15.08849511,.0001712,53.2179,20.4874,79.8370,280.2815,0,U,51868,999,17430,.16931E-3,.2408E-4,0
STARLINK-3588,2022-022T,2025-04-20T18:20:08.066400,15.08843934,.0001838,53.2177,18.7850,100.7206,259.3993,0,U,51869,999,17436,-.10894E-3,-.2022E-4,0
STARLINK-3591,2022-022U,2025-04-20T18:30:43.717248,15.08858933,.0001043,53.2186,18.7546,69.0096,291.1008,0,U,51870,999,17441,.32551E-3,.4899E-4,0
STARLINK-3567,2022-022V,2025-04-20T18:14:50.540352,15.08842564,.0001404,53.2183,18.8044,81.9134,278.2017,0,U,51871,999,17447,.47413E-4,.467E-5,0
STARLINK-3554,2022-022W,2025-04-20T00:56:11.438592,15.08840637,.0001382,53.2202,22.0407,100.9877,259.1270,0,U,51872,999,17425,.15849E-3,.2235E-4,0
STARLINK-3582,2022-022X,2025-04-20T18:00:18.500832,15.08846618,.000148,53.2190,18.8540,111.1377,248.9774,0,U,51873,999,17436,.67819E-4,.792E-5,0
STARLINK-3574,2022-022Y,2025-04-20T18:09:32.245344,15.08837346,.0002046,53.2177,18.8275,65.0492,295.0712,0,U,51874,999,17435,.29021E-3,.4333E-4,0
STARLINK-3585,2022-022Z,2025-04-20T17:37:43.428288,15.08843942,.0001318,53.2172,18.8334,101.5586,258.5554,0,U,51875,999,17436,.2639E-4,.132E-5,0
STARLINK-3583,2022-022AA,2025-04-20T18:04:13.847520,15.08844762,.0001612,53.2179,18.8385,83.2388,276.8788,0,U,51876,999,17436,.17424E-3,.2486E-4,0
STARLINK-3556,2022-022AB,2025-04-20T17:39:03.808800,15.08835223,.0001421,53.2193,8.9168,80.9366,279.1787,0,U,51877,999,17449,-.13211E-4,-.498E-5,0
STARLINK-3575,2022-022AC,2025-04-20T17:53:38.059296,15.08858283,.0001252,53.2173,18.8668,85.6285,274.4850,0,U,51878,999,17436,.24793E-3,.3662E-4,0
STARLINK-3572,2022-022AD,2025-04-20T17:28:27.802848,15.08851162,.0000985,53.2197,8.9488,312.0223,48.0685,0,U,51879,999,17449,.38597E-3,.5862E-4,0
STARLINK-3566,2022-022AE,2025-04-19T18:08:06.436320,15.08842449,.000107,53.2191,23.0313,95.3569,264.7545,0,U,51880,999,17421,.78473E-5,-.163E-5,0
STARLINK-3504,2022-022AF,2025-04-19T17:27:05.130144,15.08843178,.0001244,53.2181,13.4435,93.0103,267.1032,0,U,51881,999,17439,.30787E-3,.4616E-4,0
STARLINK-3570,2022-022AG,2025-04-20T17:35:08.389536,15.08845354,.0001559,53.2174,8.9357,103.8944,256.2221,0,U,51882,999,17454,.16805E-3,.2388E-4,0
STARLINK-3576,2022-022AH,2025-04-20T17:33:47.607264,15.08872943,.0001522,53.2183,9.1146,68.7726,291.3429,0,U,51883,999,17448,.61642E-3,.9545E-4,0
STARLINK-3577,2022-022AJ,2025-04-19T00:03:08.631072,15.08840245,.0001468,53.2178,16.6984,63.8954,296.2189,0,U,51884,999,17431,.2897E-4,.173E-5,0
STARLINK-3584,2022-022AK,2025-04-20T17:01:58.243296,15.08848148,.0001562,53.2203,9.0355,74.5245,285.5920,0,U,51885,999,17448,-.6082E-4,-.1256E-4,0
STARLINK-3565,2022-022AL,2025-04-20T20:23:19.993344,15.08850642,.0001254,53.2190,8.4009,99.0507,261.0627,0,U,51886,999,17451,-.51929E-4,-.1114E-4,0
STARLINK-3551,2022-022AM,2025-04-20T20:07:26.449248,15.08836681,.000132,53.2166,8.4559,90.4770,269.6374,0,U,51887,999,17450,.39791E-4,.345E-5,0
STARLINK-3536,2022-022AN,2025-04-20T20:18:02.427552,15.08845832,.0001267,53.2185,8.4213,83.5664,276.5472,0,U,51888,999,17451,-.36709E-4,-.872E-5,0
STARLINK-3547,2022-022AP,2025-04-20T16:40:46.447392,15.08845881,.0001374,53.2200,9.0982,105.1204,254.9940,0,U,51889,999,17448,.59041E-5,-.194E-5,0
STARLINK-3519,2022-022AQ,2025-04-20T22:00:01.999584,15.78384295,.0005971,53.1779,313.2049,243.8057,294.6272,0,U,51890,999,602,.24283E-2,.450739E-2,0
